CCSDS_OMM_VERS = 2.0
CREATION_DATE  = 
ORIGINATOR     = 

OBJECT_NAME    = SOYUZ-MS 28
OBJECT_ID      = 2025-275A
CENTER_NAME    = EARTH
REF_FRAME      = TEME
TIME_SYSTEM    = UTC
MEAN_ELEMENT_THEORY = SGP/SGP4

EPOCH          = 2025-12-29T12:01:02.523360
MEAN_MOTION    = 15.49944447
ECCENTRICITY   = .000329
INCLINATION    = 51.6323
RA_OF_ASC_NODE = 59.4638
ARG_OF_PERICENTER = 318.5670
MEAN_ANOMALY   = 41.5069

EPHEMERIS_TYPE = 0
CLASSIFICATION_TYPE = U
NORAD_CAT_ID   = 66664
ELEMENT_SET_NO = 999
REV_AT_EPOCH   = 54545
BSTAR          = .3315E-3
MEAN_MOTION_DOT = .18472E-3
MEAN_MOTION_DDOT = 0

CCSDS_OMM_VERS = 2.0
CREATION_DATE  = 
ORIGINATOR     = 

OBJECT_NAME    = 1998-067XS
OBJECT_ID      = 1998-067XS
CENTER_NAME    = EARTH
REF_FRAME      = TEME
TIME_SYSTEM    = UTC
MEAN_ELEMENT_THEORY = SGP/SGP4

EPOCH          = 2025-12-30T03:00:39.547008
MEAN_MOTION    = 15.51571001
ECCENTRICITY   = .0002577
INCLINATION    = 51.6324
RA_OF_ASC_NODE = 56.1361
ARG_OF_PERICENTER = 294.5740
MEAN_ANOMALY   = 65.4981

EPHEMERIS_TYPE = 0
CLASSIFICATION_TYPE = U
NORAD_CAT_ID   = 66906
ELEMENT_SET_NO = 999
REV_AT_EPOCH   = 431
BSTAR          = .59222E-3
MEAN_MOTION_DOT = .35439E-3
MEAN_MOTION_DDOT = 0

CCSDS_OMM_VERS = 2.0
CREATION_DATE  = 
ORIGINATOR     = 

OBJECT_NAME    = 1998-067XT
OBJECT_ID      = 1998-067XT
CENTER_NAME    = EARTH
REF_FRAME      = TEME
TIME_SYSTEM    = UTC
MEAN_ELEMENT_THEORY = SGP/SGP4

EPOCH          = 2025-12-29T11:06:25.608960
MEAN_MOTION    = 15.53668810
ECCENTRICITY   = .0003831
INCLINATION    = 51.6312
RA_OF_ASC_NODE = 59.2117
ARG_OF_PERICENTER = 329.8125
MEAN_ANOMALY   = 30.2644

EPHEMERIS_TYPE = 0
CLASSIFICATION_TYPE = U
NORAD_CAT_ID   = 66907
ELEMENT_SET_NO = 999
REV_AT_EPOCH   = 421
BSTAR          = .14194081E-2
MEAN_MOTION_DOT = .9303E-3
MEAN_MOTION_DDOT = 0

CCSDS_OMM_VERS = 2.0
CREATION_DATE  = 
ORIGINATOR     = 

OBJECT_NAME    = 1998-067XU
OBJECT_ID      = 1998-067XU
CENTER_NAME    = EARTH
REF_FRAME      = TEME
TIME_SYSTEM    = UTC
MEAN_ELEMENT_THEORY = SGP/SGP4

EPOCH          = 2025-12-29T11:04:43.734720
MEAN_MOTION    = 15.53652804
ECCENTRICITY   = .00039154
INCLINATION    = 51.6310
RA_OF_ASC_NODE = 59.2030
ARG_OF_PERICENTER = 326.0773
MEAN_ANOMALY   = 33.9966

EPHEMERIS_TYPE = 0
CLASSIFICATION_TYPE = U
NORAD_CAT_ID   = 66908
ELEMENT_SET_NO = 999
REV_AT_EPOCH   = 421
BSTAR          = .12402145E-2
MEAN_MOTION_DOT = .81056E-3
MEAN_MOTION_DDOT = 0

CCSDS_OMM_VERS = 2.0
CREATION_DATE  = 
ORIGINATOR     = 

OBJECT_NAME    = SILVERSAT
OBJECT_ID      = 1998-067XV
CENTER_NAME    = EARTH
REF_FRAME      = TEME
TIME_SYSTEM    = UTC
MEAN_ELEMENT_THEORY = SGP/SGP4

EPOCH          = 2025-12-29T12:33:43.305696
MEAN_MOTION    = 15.54074653
ECCENTRICITY   = .0003909
INCLINATION    = 51.6308
RA_OF_ASC_NODE = 58.8658
ARG_OF_PERICENTER = 333.7603
MEAN_ANOMALY   = 26.3189

EPHEMERIS_TYPE = 0
CLASSIFICATION_TYPE = U
NORAD_CAT_ID   = 66909
ELEMENT_SET_NO = 999
REV_AT_EPOCH   = 422
BSTAR          = .15885E-2
MEAN_MOTION_DOT = .105899E-2
MEAN_MOTION_DDOT = 0

CCSDS_OMM_VERS = 2.0
CREATION_DATE  = 
ORIGINATOR     = 

OBJECT_NAME    = 1998-067XW
OBJECT_ID      = 1998-067XW
CENTER_NAME    = EARTH
REF_FRAME      = TEME
TIME_SYSTEM    = UTC
MEAN_ELEMENT_THEORY = SGP/SGP4

EPOCH          = 2025-12-29T10:59:11.639040
MEAN_MOTION    = 15.53909102
ECCENTRICITY   = .00035439
INCLINATION    = 51.6309
RA_OF_ASC_NODE = 59.1775
ARG_OF_PERICENTER = 303.1215
MEAN_ANOMALY   = 56.9435

EPHEMERIS_TYPE = 0
CLASSIFICATION_TYPE = U
NORAD_CAT_ID   = 66910
ELEMENT_SET_NO = 999
REV_AT_EPOCH   = 421
BSTAR          = .14242343E-2
MEAN_MOTION_DOT = .94181E-3
MEAN_MOTION_DDOT = 0

CCSDS_OMM_VERS = 2.0
CREATION_DATE  = 
ORIGINATOR     = 

OBJECT_NAME    = 1998-067XX
OBJECT_ID      = 1998-067XX
CENTER_NAME    = EARTH
REF_FRAME      = TEME
TIME_SYSTEM    = UTC
MEAN_ELEMENT_THEORY = SGP/SGP4

EPOCH          = 2025-12-29T10:51:19.423296
MEAN_MOTION    = 15.54577281
ECCENTRICITY   = .000328
INCLINATION    = 51.6308
RA_OF_ASC_NODE = 59.1419
ARG_OF_PERICENTER = 314.1979
MEAN_ANOMALY   = 45.8742

EPHEMERIS_TYPE = 0
CLASSIFICATION_TYPE = U
NORAD_CAT_ID   = 66911
ELEMENT_SET_NO = 999
REV_AT_EPOCH   = 420
BSTAR          = .1713E-2
MEAN_MOTION_DOT = .116506E-2
MEAN_MOTION_DDOT = 0

CCSDS_OMM_VERS = 2.0
CREATION_DATE  = 
ORIGINATOR     = 

OBJECT_NAME    = 1998-067XY
OBJECT_ID      = 1998-067XY
CENTER_NAME    = EARTH
REF_FRAME      = TEME
TIME_SYSTEM    = UTC
MEAN_ELEMENT_THEORY = SGP/SGP4

EPOCH          = 2025-12-29T11:16:06.656736
MEAN_MOTION    = 15.52878561
ECCENTRICITY   = .000386
INCLINATION    = 51.6325
RA_OF_ASC_NODE = 59.2573
ARG_OF_PERICENTER = 318.8171
MEAN_ANOMALY   = 41.2527

EPHEMERIS_TYPE = 0
CLASSIFICATION_TYPE = U
NORAD_CAT_ID   = 66912
ELEMENT_SET_NO = 999
REV_AT_EPOCH   = 420
BSTAR          = .1141E-2
MEAN_MOTION_DOT = .7238E-3
MEAN_MOTION_DDOT = 0

